{
"type": "FeatureCollection",
"crs": { "type": "name", "properties": { "name": "urn:ogc:def:crs:OGC:1.3:CRS84" } },
"features": [
{ "type": "Feature", "properties": { }, "geometry": { "type": "Polygon", "coordinates": [ [ [ -117.500909, 37.220282 ], [ -117.166187, 36.970862 ], [ -117.000895, 36.847694 ], [ -116.488233, 36.459097 ], [ -116.097216, 36.158346 ], [ -116.093601, 36.155805 ], [ -115.912858, 36.015359 ], [ -115.892975, 35.999967 ], [ -115.84608, 35.963596 ], [ -115.689302, 35.842003 ], [ -115.648029, 35.809629 ], [ -115.647683, 35.809358 ], [ -115.647202, 35.808995 ], [ -115.406079, 35.618613 ], [ -115.404537, 35.617605 ], [ -115.393996, 35.609344 ], [ -115.391535, 35.607271 ], [ -115.388866, 35.605171 ], [ -115.303743, 35.538207 ], [ -115.271342, 35.51266 ], [ -115.225273, 35.475907 ], [ -115.160599, 35.424313 ], [ -115.160068, 35.424129 ], [ -115.146788, 35.413662 ], [ -115.145813, 35.413182 ], [ -114.92548, 35.237054 ], [ -114.925381, 35.237039 ], [ -114.80503, 35.140284 ], [ -114.804249, 35.139689 ], [ -114.633013, 35.002085 ], [ -114.62919, 34.991887 ], [ -114.629015, 34.986148 ], [ -114.630877, 34.907263 ], [ -114.636725, 34.889107 ], [ -114.635176, 34.875003 ], [ -114.633051, 34.869971 ], [ -114.552682, 34.766871 ], [ -114.465607, 34.69226 ], [ -114.452547, 34.653494 ], [ -114.339627, 34.451435 ], [ -114.264317, 34.401329 ], [ -114.199482, 34.361373 ], [ -114.176909, 34.349306 ], [ -114.138282, 34.30323 ], [ -114.131489, 34.260387 ], [ -114.133264, 34.258462 ], [ -114.164476, 34.251667 ], [ -114.225861, 34.201774 ], [ -114.244191, 34.179625 ], [ -114.312592, 34.144453 ], [ -114.321618, 34.138093 ], [ -114.366521, 34.118575 ], [ -114.390565, 34.110084 ], [ -114.401352, 34.111652 ], [ -114.411681, 34.110031 ], [ -114.420499, 34.103466 ], [ -114.43338, 34.088413 ], [ -114.435429, 34.079727 ], [ -114.434949, 34.037784 ], [ -114.438266, 34.022609 ], [ -114.46361, 33.993431 ], [ -114.499883, 33.961789 ], [ -114.518434, 33.917518 ], [ -114.525539, 33.838614 ], [ -114.523365, 33.80612 ], [ -114.50434, 33.756381 ], [ -114.494197, 33.707922 ], [ -114.496489, 33.696901 ], [ -114.519113, 33.688473 ], [ -114.523959, 33.685879 ], [ -114.530348, 33.679245 ], [ -114.540617, 33.591412 ], [ -114.5403, 33.580615 ], [ -114.535965, 33.569154 ], [ -114.535664, 33.568788 ], [ -114.558898, 33.531819 ], [ -114.594534, 33.495059 ], [ -114.622918, 33.456561 ], [ -114.627125, 33.433554 ], [ -114.665278, 33.415358 ], [ -114.721233, 33.396912 ], [ -114.700103, 33.341045 ], [ -114.672088, 33.258499 ], [ -114.67536, 33.185489 ], [ -114.679359, 33.159519 ], [ -114.687074, 33.142196 ], [ -114.696829, 33.131209 ], [ -114.706175, 33.105335 ], [ -114.707819, 33.091102 ], [ -114.675104, 33.047532 ], [ -114.62387, 33.02872 ], [ -114.606282, 33.025703 ], [ -114.589778, 33.026228 ], [ -114.584765, 33.028231 ], [ -114.578287, 33.035375 ], [ -114.571653, 33.036624 ], [ -114.523578, 33.030961 ], [ -114.516912, 33.026871 ], [ -114.511343, 33.023455 ], [ -114.468605, 32.971649 ], [ -114.46289, 32.905797 ], [ -114.465715, 32.87942 ], [ -114.465715, 32.879191 ], [ -114.496284, 32.822326 ], [ -114.496827, 32.822119 ], [ -114.615733, 32.729427 ], [ -114.615585, 32.728446 ], [ -114.65826, 32.733799 ], [ -114.65884, 32.73383 ], [ -114.677091, 32.736218 ], [ -114.678632, 32.736614 ], [ -114.719633, 32.718763 ], [ -115.465164, 32.6671 ], [ -115.875842, 32.636424 ], [ -116.106159, 32.618328 ], [ -116.390091, 32.59602 ], [ -117.118865, 32.534661 ], [ -117.124862, 32.534156 ], [ -117.133363, 32.575625 ], [ -117.132963, 32.597054 ], [ -117.136664, 32.618754 ], [ -117.139464, 32.627054 ], [ -117.159865, 32.660652 ], [ -117.168866, 32.671952 ], [ -117.180366, 32.681652 ], [ -117.192967, 32.687751 ], [ -117.196767, 32.688851 ], [ -117.213068, 32.687751 ], [ -117.223868, 32.683051 ], [ -117.236239, 32.671353 ], [ -117.246069, 32.669352 ], [ -117.255169, 32.700051 ], [ -117.25757, 32.72605 ], [ -117.25537, 32.745449 ], [ -117.25257, 32.752949 ], [ -117.25497, 32.786948 ], [ -117.26107, 32.803148 ], [ -117.280971, 32.822247 ], [ -117.28217, 32.839547 ], [ -117.28117, 32.843047 ], [ -117.27387, 32.851447 ], [ -117.26497, 32.848947 ], [ -117.26067, 32.852647 ], [ -117.25617, 32.859447 ], [ -117.25167, 32.874346 ], [ -117.25447, 32.900146 ], [ -117.26047, 32.931245 ], [ -117.262547, 32.939542 ], [ -117.28077, 33.012343 ], [ -117.29337, 33.034642 ], [ -117.309771, 33.07454 ], [ -117.315278, 33.093504 ], [ -117.328359, 33.121842 ], [ -117.359484, 33.164231 ], [ -117.362572, 33.168437 ], [ -117.39148, 33.202762 ], [ -117.401926, 33.213598 ], [ -117.445583, 33.268517 ], [ -117.469794, 33.296417 ], [ -117.50565, 33.334063 ], [ -117.547693, 33.365491 ], [ -117.571722, 33.378988 ], [ -117.59588, 33.386629 ], [ -117.607905, 33.406317 ], [ -117.631682, 33.430528 ], [ -117.645582, 33.440728 ], [ -117.645592, 33.440733 ], [ -117.684584, 33.461927 ], [ -117.689284, 33.460155 ], [ -117.691984, 33.456627 ], [ -117.691384, 33.454028 ], [ -117.715349, 33.460556 ], [ -117.726486, 33.483427 ], [ -117.761387, 33.516326 ], [ -117.784888, 33.541525 ], [ -117.801288, 33.546324 ], [ -117.814188, 33.552224 ], [ -117.840289, 33.573523 ], [ -117.87679, 33.592322 ], [ -117.89979, 33.599622 ], [ -117.927091, 33.605521 ], [ -117.940591, 33.620021 ], [ -117.957114, 33.629466 ], [ -118.000593, 33.654319 ], [ -118.029694, 33.676418 ], [ -118.064895, 33.711018 ], [ -118.088896, 33.729817 ], [ -118.101097, 33.734117 ], [ -118.116703, 33.743549 ], [ -118.132698, 33.753217 ], [ -118.1569, 33.760317 ], [ -118.1755, 33.763617 ], [ -118.180831, 33.763072 ], [ -118.187701, 33.749218 ], [ -118.1837, 33.736118 ], [ -118.181367, 33.717367 ], [ -118.207476, 33.716905 ], [ -118.258687, 33.703741 ], [ -118.277208, 33.707091 ], [ -118.297104, 33.708319 ], [ -118.317205, 33.712818 ], [ -118.354705, 33.732317 ], [ -118.360505, 33.736817 ], [ -118.385006, 33.741417 ], [ -118.396606, 33.735917 ], [ -118.411211, 33.741985 ], [ -118.428407, 33.774715 ], [ -118.423407, 33.782015 ], [ -118.405007, 33.800215 ], [ -118.394376, 33.804289 ], [ -118.394307, 33.804315 ], [ -118.391507, 33.815415 ], [ -118.392107, 33.840915 ], [ -118.412708, 33.883913 ], [ -118.44241, 33.940312 ], [ -118.460611, 33.969111 ], [ -118.482729, 33.995912 ], [ -118.484212, 33.99771 ], [ -118.502813, 34.015509 ], [ -118.519514, 34.027509 ], [ -118.543115, 34.038508 ], [ -118.569235, 34.04164 ], [ -118.603572, 34.039048 ], [ -118.609652, 34.036424 ], [ -118.668358, 34.038887 ], [ -118.67543, 34.037479 ], [ -118.679366, 34.033255 ], [ -118.706215, 34.029383 ], [ -118.732391, 34.032743 ], [ -118.744952, 34.032103 ], [ -118.783433, 34.021543 ], [ -118.787094, 34.019545 ], [ -118.805114, 34.001239 ], [ -118.821579, 34.013959 ], [ -118.84038, 34.027527 ], [ -118.854653, 34.034215 ], [ -118.896159, 34.039207 ], [ -118.928048, 34.045847 ], [ -118.938081, 34.043383 ], [ -118.944887, 34.04534 ], [ -118.954722, 34.048167 ], [ -118.977751, 34.059822 ], [ -118.99698, 34.065943 ], [ -119.004644, 34.066231 ], [ -119.037494, 34.083111 ], [ -119.069959, 34.09047 ], [ -119.088536, 34.09831 ], [ -119.098216, 34.099334 ], [ -119.109784, 34.094566 ], [ -119.130169, 34.100102 ], [ -119.159554, 34.119653 ], [ -119.18864, 34.139005 ], [ -119.20314, 34.144505 ], [ -119.211241, 34.144905 ], [ -119.216441, 34.146105 ], [ -119.227743, 34.161728 ], [ -119.237142, 34.175804 ], [ -119.257043, 34.213304 ], [ -119.265927, 34.234609 ], [ -119.270144, 34.252903 ], [ -119.278644, 34.266902 ], [ -119.290945, 34.274902 ], [ -119.302131, 34.272761 ], [ -119.313034, 34.275689 ], [ -119.337475, 34.290576 ], [ -119.349187, 34.304383 ], [ -119.370356, 34.319486 ], [ -119.37578, 34.321118 ], [ -119.388249, 34.317398 ], [ -119.390449, 34.318198 ], [ -119.42777, 34.353016 ], [ -119.431066, 34.355297 ], [ -119.435888, 34.355839 ], [ -119.461036, 34.374064 ], [ -119.472678, 34.375628 ], [ -119.478265, 34.377197 ], [ -119.510655, 34.386295 ], [ -119.536957, 34.395495 ], [ -119.559459, 34.413395 ], [ -119.616862, 34.420995 ], [ -119.638864, 34.415696 ], [ -119.648664, 34.417396 ], [ -119.671866, 34.416096 ], [ -119.688167, 34.412497 ], [ -119.684666, 34.408297 ], [ -119.691749, 34.403154 ], [ -119.709067, 34.395397 ], [ -119.729369, 34.395897 ], [ -119.74547, 34.402898 ], [ -119.785871, 34.415997 ], [ -119.794771, 34.417597 ], [ -119.835771, 34.415796 ], [ -119.853771, 34.407996 ], [ -119.873971, 34.408795 ], [ -119.925227, 34.433931 ], [ -119.956433, 34.435288 ], [ -119.971951, 34.444641 ], [ -120.008077, 34.460447 ], [ -120.038828, 34.463434 ], [ -120.050682, 34.461651 ], [ -120.088591, 34.460208 ], [ -120.097212, 34.461809 ], [ -120.118411, 34.469927 ], [ -120.141165, 34.473405 ], [ -120.183505, 34.470372 ], [ -120.225498, 34.470587 ], [ -120.238002, 34.468098 ], [ -120.25777, 34.467451 ], [ -120.283001, 34.468354 ], [ -120.295051, 34.470623 ], [ -120.299169, 34.469731 ], [ -120.301822, 34.467077 ], [ -120.341369, 34.458789 ], [ -120.441975, 34.451512 ], [ -120.451425, 34.447094 ], [ -120.471376, 34.447846 ], [ -120.47661, 34.475131 ], [ -120.480372, 34.481059 ], [ -120.490523, 34.490075 ], [ -120.511421, 34.522953 ], [ -120.524776, 34.531291 ], [ -120.581293, 34.556959 ], [ -120.608355, 34.556656 ], [ -120.612005, 34.553564 ], [ -120.622575, 34.554017 ], [ -120.637805, 34.56622 ], [ -120.645739, 34.581035 ], [ -120.640244, 34.604406 ], [ -120.625127, 34.634489 ], [ -120.60197, 34.692095 ], [ -120.60045, 34.70464 ], [ -120.601672, 34.709721 ], [ -120.614852, 34.730709 ], [ -120.62632, 34.738072 ], [ -120.637415, 34.755895 ], [ -120.62297, 34.7933 ], [ -120.616296, 34.816308 ], [ -120.609898, 34.842751 ], [ -120.610266, 34.85818 ], [ -120.616325, 34.866739 ], [ -120.639283, 34.880413 ], [ -120.642212, 34.894145 ], [ -120.647328, 34.901133 ], [ -120.662889, 34.901183 ], [ -120.670835, 34.904115 ], [ -120.648905, 34.974393 ], [ -120.63999, 35.002963 ], [ -120.63357, 35.033085 ], [ -120.629931, 35.061515 ], [ -120.629583, 35.078362 ], [ -120.630957, 35.101941 ], [ -120.635787, 35.123805 ], [ -120.644311, 35.139616 ], [ -120.651134, 35.147768 ], [ -120.662475, 35.153357 ], [ -120.667994, 35.15203 ], [ -120.675074, 35.153061 ], [ -120.686974, 35.160708 ], [ -120.698906, 35.171192 ], [ -120.704203, 35.173206 ], [ -120.714185, 35.175998 ], [ -120.734231, 35.178472 ], [ -120.74887, 35.177795 ], [ -120.754823, 35.174701 ], [ -120.756862, 35.169208 ], [ -120.756086, 35.160459 ], [ -120.760492, 35.15971 ], [ -120.778998, 35.168897 ], [ -120.786076, 35.177666 ], [ -120.805258, 35.184973 ], [ -120.846674, 35.204429 ], [ -120.856047, 35.206487 ], [ -120.873046, 35.225688 ], [ -120.89679, 35.247877 ], [ -120.896876, 35.25399 ], [ -120.889354, 35.277819 ], [ -120.87957, 35.294184 ], [ -120.8672, 35.327154 ], [ -120.862684, 35.346776 ], [ -120.862133, 35.360763 ], [ -120.866099, 35.393045 ], [ -120.869209, 35.403276 ], [ -120.884757, 35.430196 ], [ -120.896862, 35.442243 ], [ -120.907937, 35.449069 ], [ -120.946546, 35.446715 ], [ -120.950742, 35.44802 ], [ -120.955863, 35.453743 ], [ -120.969436, 35.460197 ], [ -120.976122, 35.459028 ], [ -121.003359, 35.46071 ], [ -121.025621, 35.484598 ], [ -121.05308, 35.50753 ], [ -121.059913, 35.509671 ], [ -121.101595, 35.548814 ], [ -121.126027, 35.593058 ], [ -121.133556, 35.600455 ], [ -121.143561, 35.606046 ], [ -121.166712, 35.635399 ], [ -121.188897, 35.643138 ], [ -121.195291, 35.640734 ], [ -121.251034, 35.656641 ], [ -121.272322, 35.666711 ], [ -121.284973, 35.674109 ], [ -121.289794, 35.689428 ], [ -121.296473, 35.696824 ], [ -121.304583, 35.701794 ], [ -121.314632, 35.71331 ], [ -121.315786, 35.75252 ], [ -121.324918, 35.769347 ], [ -121.332449, 35.783106 ], [ -121.346363, 35.795183 ], [ -121.356737, 35.804187 ], [ -121.388053, 35.823483 ], [ -121.406823, 35.844623 ], [ -121.413146, 35.855316 ], [ -121.426955, 35.860103 ], [ -121.439584, 35.86695 ], [ -121.462264, 35.885618 ], [ -121.461227, 35.896906 ], [ -121.463452, 35.904416 ], [ -121.472435, 35.91989 ], [ -121.4862, 35.970348 ], [ -121.503112, 36.000299 ], [ -121.51159, 36.006598 ], [ -121.531876, 36.014368 ], [ -121.553716, 36.019798 ], [ -121.569612, 36.021539 ], [ -121.574602, 36.025156 ], [ -121.590395, 36.050363 ], [ -121.589183, 36.053775 ], [ -121.592853, 36.065062 ], [ -121.606845, 36.072065 ], [ -121.618672, 36.087767 ], [ -121.622009, 36.099695 ], [ -121.629634, 36.114452 ], [ -121.680145, 36.165818 ], [ -121.717176, 36.195146 ], [ -121.779851, 36.227407 ], [ -121.797059, 36.234211 ], [ -121.806979, 36.232907 ], [ -121.813734, 36.234235 ], [ -121.826425, 36.24186 ], [ -121.835785, 36.250748 ], [ -121.83935, 36.260478 ], [ -121.851967, 36.277831 ], [ -121.874797, 36.289064 ], [ -121.888491, 36.30281 ], [ -121.894714, 36.317806 ], [ -121.892917, 36.340428 ], [ -121.905446, 36.358269 ], [ -121.902669, 36.363901 ], [ -121.901813, 36.381879 ], [ -121.903195, 36.393603 ], [ -121.905657, 36.398206 ], [ -121.914378, 36.404344 ], [ -121.917463, 36.414809 ], [ -121.91474, 36.42589 ], [ -121.9255, 36.453918 ], [ -121.937205, 36.472488 ], [ -121.9416, 36.485602 ], [ -121.939216, 36.496896 ], [ -121.938763, 36.506423 ], [ -121.943678, 36.511802 ], [ -121.944666, 36.521861 ], [ -121.928769, 36.523147 ], [ -121.925937, 36.525173 ], [ -121.932508, 36.559935 ], [ -121.942533, 36.566435 ], [ -121.949659, 36.567602 ], [ -121.95146, 36.564009 ], [ -121.957335, 36.564482 ], [ -121.972594, 36.57337 ], [ -121.978592, 36.580488 ], [ -121.970427, 36.582754 ], [ -121.941666, 36.618059 ], [ -121.938551, 36.633908 ], [ -121.93643, 36.636746 ], [ -121.929666, 36.636959 ], [ -121.923866, 36.634559 ], [ -121.890164, 36.609259 ], [ -121.889064, 36.601759 ], [ -121.886764, 36.601459 ], [ -121.871364, 36.604559 ], [ -121.860604, 36.611136 ], [ -121.842263, 36.630059 ], [ -121.831995, 36.644856 ], [ -121.825052, 36.657207 ], [ -121.814462, 36.682858 ], [ -121.807062, 36.714157 ], [ -121.805643, 36.750239 ], [ -121.788278, 36.803994 ], [ -121.791544, 36.815186 ], [ -121.809363, 36.848654 ], [ -121.810552, 36.850648 ], [ -121.827664, 36.879353 ], [ -121.862266, 36.931552 ], [ -121.880167, 36.950151 ], [ -121.894667, 36.961851 ], [ -121.906468, 36.96895 ], [ -121.930069, 36.97815 ], [ -121.93947, 36.97805 ], [ -121.95167, 36.97145 ], [ -121.972771, 36.954151 ], [ -121.975871, 36.954051 ], [ -121.983896, 36.958727 ], [ -122.012373, 36.96455 ], [ -122.023373, 36.96215 ], [ -122.027174, 36.95115 ], [ -122.050122, 36.948523 ], [ -122.066421, 36.948271 ], [ -122.079356, 36.950783 ], [ -122.105976, 36.955951 ], [ -122.140578, 36.97495 ], [ -122.155078, 36.98085 ], [ -122.186879, 37.00345 ], [ -122.20618, 37.013949 ], [ -122.252181, 37.059448 ], [ -122.260481, 37.072548 ], [ -122.284882, 37.101747 ], [ -122.292974, 37.107318 ], [ -122.306139, 37.116383 ], [ -122.313907, 37.118161 ], [ -122.322971, 37.11546 ], [ -122.330463, 37.115338 ], [ -122.337071, 37.117382 ], [ -122.338856, 37.120854 ], [ -122.337085, 37.130795 ], [ -122.337833, 37.135936 ], [ -122.344029, 37.144099 ], [ -122.359791, 37.155574 ], [ -122.36179, 37.163593 ], [ -122.367085, 37.172817 ], [ -122.37927, 37.181128 ], [ -122.390599, 37.182988 ], [ -122.397065, 37.187249 ], [ -122.405073, 37.195791 ], [ -122.407181, 37.219465 ], [ -122.408982, 37.225258 ], [ -122.415822, 37.232839 ], [ -122.419113, 37.24147 ], [ -122.418452, 37.248521 ], [ -122.411686, 37.265844 ], [ -122.410813303323266, 37.271837 ], [ -117.570833525683952, 37.271837 ], [ -117.500909, 37.220282 ] ] ] } }
]
}
