{
"type": "FeatureCollection",
"name": "california_north_10",
"crs": { "type": "name", "properties": { "name": "urn:ogc:def:crs:OGC:1.3:CRS84" } },
"features": [
{ "type": "Feature", "properties": { }, "geometry": { "type": "Polygon", "coordinates": [ [ [ -124.092404, 41.553615 ], [ -124.101123, 41.569192 ], [ -124.101403, 41.578524 ], [ -124.097385, 41.585251 ], [ -124.100961, 41.602499 ], [ -124.114413, 41.616768 ], [ -124.116037, 41.628849 ], [ -124.120225, 41.640354 ], [ -124.135552, 41.657307 ], [ -124.139354, 41.671652 ], [ -124.138373, 41.678881 ], [ -124.143479, 41.709284 ], [ -124.147412, 41.717955 ], [ -124.154246, 41.728801 ], [ -124.164716, 41.740126 ], [ -124.17739, 41.745756 ], [ -124.185363, 41.739351 ], [ -124.19104, 41.736079 ], [ -124.194953, 41.736778 ], [ -124.203843, 41.747035 ], [ -124.23972, 41.7708 ], [ -124.242288, 41.772034 ], [ -124.248704, 41.771459 ], [ -124.255994, 41.783014 ], [ -124.245027, 41.7923 ], [ -124.230678, 41.818681 ], [ -124.219592, 41.846432 ], [ -124.208439, 41.888192 ], [ -124.203402, 41.940964 ], [ -124.204948, 41.983441 ], [ -124.211605, 41.99846 ], [ -124.100921, 41.996956 ], [ -124.100216, 41.996842 ], [ -124.087827, 41.996891 ], [ -124.086661, 41.996869 ], [ -123.821472, 41.995473 ], [ -123.624554, 41.999837 ], [ -123.518075, 42.000436 ], [ -123.501997, 42.000527 ], [ -123.498896, 42.000474 ], [ -123.49883, 42.000525 ], [ -123.347562, 41.999108 ], [ -123.230764, 42.003845 ], [ -123.230762, 42.003845 ], [ -123.154908, 42.008036 ], [ -123.045254, 42.003049 ], [ -123.001152, 42.003 ], [ -122.634739, 42.004858 ], [ -122.501135, 42.00846 ], [ -122.378193, 42.009518 ], [ -122.289533, 42.007764 ], [ -122.289527, 42.007764 ], [ -122.161328, 42.007637 ], [ -122.160438, 42.007637 ], [ -122.156666, 42.007384 ], [ -122.155408, 42.007429 ], [ -122.001119, 42.004017 ], [ -121.708199, 42.000815 ], [ -121.705045, 42.000766 ], [ -121.689159, 42.000584 ], [ -121.675348, 42.000351 ], [ -121.580865, 41.998668 ], [ -121.52025, 41.997983 ], [ -121.44754, 41.997169 ], [ -121.43961, 41.99708 ], [ -121.434977, 41.997022 ], [ -121.376101, 41.997026 ], [ -121.360253, 41.99668 ], [ -121.340517, 41.99622 ], [ -121.335734, 41.996518 ], [ -121.334385, 41.996655 ], [ -121.154347, 41.996352 ], [ -121.035195, 41.993323 ], [ -120.879481, 41.993781 ], [ -120.693941, 41.993676 ], [ -120.692219, 41.993677 ], [ -120.326005, 41.993122 ], [ -120.286424, 41.993058 ], [ -119.999168, 41.99454 ], [ -119.999593861583136, 41.5 ], [ -124.075367013651231, 41.5 ], [ -124.075917, 41.501757 ], [ -124.081427, 41.511228 ], [ -124.081987, 41.547761 ], [ -124.092404, 41.553615 ] ] ] } }
]
}
