{
"type": "FeatureCollection",
"name": "california_north_12",
"crs": { "type": "name", "properties": { "name": "urn:ogc:def:crs:OGC:1.3:CRS84" } },
"features": [
{ "type": "Feature", "properties": { }, "geometry": { "type": "Polygon", "coordinates": [ [ [ -122.634739, 42.004858 ], [ -122.501135, 42.00846 ], [ -122.378193, 42.009518 ], [ -122.289533, 42.007764 ], [ -122.289527, 42.007764 ], [ -122.161328, 42.007637 ], [ -122.160438, 42.007637 ], [ -122.156666, 42.007384 ], [ -122.155408, 42.007429 ], [ -122.001119, 42.004017 ], [ -121.708199, 42.000815 ], [ -121.705045, 42.000766 ], [ -121.689159, 42.000584 ], [ -121.675348, 42.000351 ], [ -121.580865, 41.998668 ], [ -121.52025, 41.997983 ], [ -121.44754, 41.997169 ], [ -121.43961, 41.99708 ], [ -121.434977, 41.997022 ], [ -121.42520471, 41.997022663923509 ], [ -121.42520471, 41.5 ], [ -122.829957289999982, 41.5 ], [ -122.829957289999982, 42.003868097599195 ], [ -122.634739, 42.004858 ] ] ] } }
]
}
